{
    "links": {
        "self": "http://www.neowsapp.com/rest/v1/neo/3736676?api_key=iIulBulltgU6a56xZRHN4H3l9WmuAYTsLGpBGhQ2"
    },
    "id": "3736676",
    "neo_reference_id": "3736676",
    "name": "(2015 XY351)",
    "designation": "2015 XY351",
    "nasa_jpl_url": "http://ssd.jpl.nasa.gov/sbdb.cgi?sstr=3736676",
    "absolute_magnitude_h": 26.8,
    "estimated_diameter": {
        "kilometers": {
            "estimated_diameter_min": 0.0116025908,
            "estimated_diameter_max": 0.0259441818
        },
        "meters": {
            "estimated_diameter_min": 11.6025908209,
            "estimated_diameter_max": 25.9441817907
        },
        "miles": {
            "estimated_diameter_min": 0.0072095135,
            "estimated_diameter_max": 0.0161209622
        },
        "feet": {
            "estimated_diameter_min": 38.066244069,
            "estimated_diameter_max": 85.1187093863
        }
    },
    "is_potentially_hazardous_asteroid": false,
    "close_approach_data": [
        {
            "close_approach_date": "2015-12-06",
            "close_approach_date_full": "2015-Dec-06 06:08",
            "epoch_date_close_approach": 1449382080000,
            "relative_velocity": {
                "kilometers_per_second": "7.9788036448",
                "kilometers_per_hour": "28723.6931214212",
                "miles_per_hour": "17847.7858731409"
            },
            "miss_distance": {
                "astronomical": "0.0282599178",
                "lunar": "10.9931080242",
                "kilometers": "4227623.509255086",
                "miles": "2626923.4365927468"
            },
            "orbiting_body": "Earth"
        }
    ],
    "orbital_data": {
        "orbit_id": "4",
        "orbit_determination_date": "2017-04-06 08:29:53",
        "first_observation_date": "2015-12-12",
        "last_observation_date": "2015-12-18",
        "data_arc_in_days": 6,
        "observations_used": 16,
        "orbit_uncertainty": "8",
        "minimum_orbit_intersection": ".0195213",
        "jupiter_tisserand_invariant": "3.785",
        "epoch_osculation": "2457369.5",
        "eccentricity": ".4810748552351014",
        "semi_major_axis": "1.906595361285499",
        "inclination": "5.823476227797954",
        "ascending_node_longitude": "75.8958990018877",
        "orbital_period": "961.5817782424039",
        "perihelion_distance": ".9893802738631615",
        "perihelion_argument": "337.3404670008225",
        "aphelion_distance": "2.823810448707836",
        "perihelion_time": "2457346.647755890364",
        "mean_anomaly": "8.555494774980101",
        "mean_motion": ".3743831342748761",
        "equinox": "J2000",
        "orbit_class": {
            "orbit_class_type": "APO",
            "orbit_class_description": "Near-Earth asteroid orbits which cross the Earth’s orbit similar to that of 1862 Apollo",
            "orbit_class_range": "a (semi-major axis) > 1.0 AU; q (perihelion) < 1.017 AU"
        }
    },
    "is_sentry_object": false
}